{
  "type": "FeatureCollection",
  "features": [
    {
      "type": "Feature",
      "properties": {
        "norad_id": 66518,
        "name": "STARLINK-35962",
        "group": "last-30-days",
        "lat": -33.93151962035358,
        "lon": -76.85673494519096,
        "alt_km": 417.1322166323562,
        "timestamp": "2025-12-12T05:47:27.525274+00:00",
        "meta_object_name": "STARLINK-35962",
        "meta_object_id": "2025-265C",
        "meta_epoch": "2025-12-11T20:00:01.999872",
        "meta_mean_motion": 15.50587487,
        "meta_eccentricity": 0.00018025,
        "meta_inclination": 43.0002,
        "meta_ra_of_asc_node": 59.3125,
        "meta_arg_of_pericenter": 267.9805,
        "meta_mean_anomaly": 207.1242,
        "meta_ephemeris_type": 0,
        "meta_classification_type": "U",
        "meta_norad_cat_id": 66518,
        "meta_element_set_no": 999,
        "meta_rev_at_epoch": 484,
        "meta_bstar": -0.0013262398,
        "meta_mean_motion_dot": -0.00077407,
        "meta_mean_motion_ddot": 0,
        "tle_line1": "1 66518U 25265C   25345.83335648 -.00077407  00000+0 -13262-2 0  9997",
        "tle_line2": "2 66518  43.0002  59.3125 0001802 267.9805 207.1242 15.50587487  4844"
      },
      "geometry": {
        "type": "Point",
        "coordinates": [
          -76.85673494519096,
          -33.93151962035358
        ]
      }
    },
    {
      "type": "Feature",
      "properties": {
        "norad_id": 66519,
        "name": "STARLINK-35931",
        "group": "last-30-days",
        "lat": -34.815751860475345,
        "lon": -74.81012114358761,
        "alt_km": 417.33665410051253,
        "timestamp": "2025-12-12T05:47:27.525285+00:00",
        "meta_object_name": "STARLINK-35931",
        "meta_object_id": "2025-265D",
        "meta_epoch": "2025-12-11T20:00:01.999872",
        "meta_mean_motion": 15.50570104,
        "meta_eccentricity": 0.00015139,
        "meta_inclination": 43.0004,
        "meta_ra_of_asc_node": 59.3076,
        "meta_arg_of_pericenter": 271.0995,
        "meta_mean_anomaly": 205.9239,
        "meta_ephemeris_type": 0,
        "meta_classification_type": "U",
        "meta_norad_cat_id": 66519,
        "meta_element_set_no": 999,
        "meta_rev_at_epoch": 484,
        "meta_bstar": -0.00081782834,
        "meta_mean_motion_dot": -0.00048011,
        "meta_mean_motion_ddot": 0,
        "tle_line1": "1 66519U 25265D   25345.83335648 -.00048011  00000+0 -81783-3 0  9991",
        "tle_line2": "2 66519  43.0004  59.3076 0001513 271.0995 205.9239 15.50570104  4847"
      },
      "geometry": {
        "type": "Point",
        "coordinates": [
          -74.81012114358761,
          -34.815751860475345
        ]
      }
    },
    {
      "type": "Feature",
      "properties": {
        "norad_id": 66520,
        "name": "STARLINK-35952",
        "group": "last-30-days",
        "lat": -34.74110881858895,
        "lon": -74.98834077824034,
        "alt_km": 423.67251948120975,
        "timestamp": "2025-12-12T05:47:27.525295+00:00",
        "meta_object_name": "STARLINK-35952",
        "meta_object_id": "2025-265E",
        "meta_epoch": "2025-12-11T20:00:01.999872",
        "meta_mean_motion": 15.50141435,
        "meta_eccentricity": 0.00014799,
        "meta_inclination": 43.0002,
        "meta_ra_of_asc_node": 59.3022,
        "meta_arg_of_pericenter": 276.1059,
        "meta_mean_anomaly": 202.728,
        "meta_ephemeris_type": 0,
        "meta_classification_type": "U",
        "meta_norad_cat_id": 66520,
        "meta_element_set_no": 999,
        "meta_rev_at_epoch": 484,
        "meta_bstar": -0.040433461,
        "meta_mean_motion_dot": -0.02076534,
        "meta_mean_motion_ddot": 0,
        "tle_line1": "1 66520U 25265E   25345.83335648 -.02076534  00000+0 -40433-1 0  9991",
        "tle_line2": "2 66520  43.0002  59.3022 0001479 276.1059 202.7280 15.50141435  4848"
      },
      "geometry": {
        "type": "Point",
        "coordinates": [
          -74.98834077824034,
          -34.74110881858895
        ]
      }
    },
    {
      "type": "Feature",
      "properties": {
        "norad_id": 66521,
        "name": "STARLINK-35915",
        "group": "last-30-days",
        "lat": -36.48287923985757,
        "lon": -70.56815067801267,
        "alt_km": 417.21716100263257,
        "timestamp": "2025-12-12T05:47:27.525305+00:00",
        "meta_object_name": "STARLINK-35915",
        "meta_object_id": "2025-265F",
        "meta_epoch": "2025-12-11T20:00:01.999872",
        "meta_mean_motion": 15.50582523,
        "meta_eccentricity": 0.00017935,
        "meta_inclination": 43.0003,
        "meta_ra_of_asc_node": 59.2976,
        "meta_arg_of_pericenter": 268.9374,
        "meta_mean_anomaly": 211.9228,
        "meta_ephemeris_type": 0,
        "meta_classification_type": "U",
        "meta_norad_cat_id": 66521,
        "meta_element_set_no": 999,
        "meta_rev_at_epoch": 484,
        "meta_bstar": -0.0012165291,
        "meta_mean_motion_dot": -0.00071076,
        "meta_mean_motion_ddot": 0,
        "tle_line1": "1 66521U 25265F   25345.83335648 -.00071076  00000+0 -12165-2 0  9998",
        "tle_line2": "2 66521  43.0003  59.2976 0001793 268.9374 211.9228 15.50582523  4846"
      },
      "geometry": {
        "type": "Point",
        "coordinates": [
          -70.56815067801267,
          -36.48287923985757
        ]
      }
    },
    {
      "type": "Feature",
      "properties": {
        "norad_id": 66522,
        "name": "STARLINK-35946",
        "group": "last-30-days",
        "lat": -37.21384233718659,
        "lon": -68.5097491318187,
        "alt_km": 416.8631662202006,
        "timestamp": "2025-12-12T05:47:27.525317+00:00",
        "meta_object_name": "STARLINK-35946",
        "meta_object_id": "2025-265G",
        "meta_epoch": "2025-12-11T20:00:01.999872",
        "meta_mean_motion": 15.50555756,
        "meta_eccentricity": 0.0001983,
        "meta_inclination": 43.0001,
        "meta_ra_of_asc_node": 59.2935,
        "meta_arg_of_pericenter": 270.3811,
        "meta_mean_anomaly": 212.2331,
        "meta_ephemeris_type": 0,
        "meta_classification_type": "U",
        "meta_norad_cat_id": 66522,
        "meta_element_set_no": 999,
        "meta_rev_at_epoch": 484,
        "meta_bstar": 0.001454976,
        "meta_mean_motion_dot": 0.00085887,
        "meta_mean_motion_ddot": 0,
        "tle_line1": "1 66522U 25265G   25345.83335648  .00085887  00000+0  14550-2 0  9992",
        "tle_line2": "2 66522  43.0001  59.2935 0001983 270.3811 212.2331 15.50555756  4841"
      },
      "geometry": {
        "type": "Point",
        "coordinates": [
          -68.5097491318187,
          -37.21384233718659
        ]
      }
    },
    {
      "type": "Feature",
      "properties": {
        "norad_id": 66523,
        "name": "STARLINK-35969",
        "group": "last-30-days",
        "lat": -37.98426026708423,
        "lon": -66.17434676848451,
        "alt_km": 416.18012363413163,
        "timestamp": "2025-12-12T05:47:27.525327+00:00",
        "meta_object_name": "STARLINK-35969",
        "meta_object_id": "2025-265H",
        "meta_epoch": "2025-12-11T20:00:01.999872",
        "meta_mean_motion": 15.50651289,
        "meta_eccentricity": 0.00045727,
        "meta_inclination": 43.0003,
        "meta_ra_of_asc_node": 59.2888,
        "meta_arg_of_pericenter": 284.9912,
        "meta_mean_anomaly": 199.693,
        "meta_ephemeris_type": 0,
        "meta_classification_type": "U",
        "meta_norad_cat_id": 66523,
        "meta_element_set_no": 999,
        "meta_rev_at_epoch": 484,
        "meta_bstar": -0.0035347157,
        "meta_mean_motion_dot": -0.00203063,
        "meta_mean_motion_ddot": 0,
        "tle_line1": "1 66523U 25265H   25345.83335648 -.00203063  00000+0 -35347-2 0  9990",
        "tle_line2": "2 66523  43.0003  59.2888 0004572 284.9912 199.6930 15.50651289  4842"
      },
      "geometry": {
        "type": "Point",
        "coordinates": [
          -66.17434676848451,
          -37.98426026708423
        ]
      }
    },
    {
      "type": "Feature",
      "properties": {
        "norad_id": 66524,
        "name": "STARLINK-35687",
        "group": "last-30-days",
        "lat": -31.516181944277786,
        "lon": -81.91276077123091,
        "alt_km": 435.6844254569587,
        "timestamp": "2025-12-12T05:47:27.525337+00:00",
        "meta_object_name": "STARLINK-35687",
        "meta_object_id": "2025-265J",
        "meta_epoch": "2025-12-11T20:00:01.999872",
        "meta_mean_motion": 15.4602904,
        "meta_eccentricity": 0.00015316,
        "meta_inclination": 43.0002,
        "meta_ra_of_asc_node": 59.3045,
        "meta_arg_of_pericenter": 279.3357,
        "meta_mean_anomaly": 198.9003,
        "meta_ephemeris_type": 0,
        "meta_classification_type": "U",
        "meta_norad_cat_id": 66524,
        "meta_element_set_no": 999,
        "meta_rev_at_epoch": 484,
        "meta_bstar": -0.046520982,
        "meta_mean_motion_dot": -0.02067451,
        "meta_mean_motion_ddot": 0,
        "tle_line1": "1 66524U 25265J   25345.83335648 -.02067451  00000+0 -46521-1 0  9997",
        "tle_line2": "2 66524  43.0002  59.3045 0001531 279.3357 198.9003 15.46029040  4843"
      },
      "geometry": {
        "type": "Point",
        "coordinates": [
          -81.91276077123091,
          -31.516181944277786
        ]
      }
    }
  ]
}